CELESTIS-02 & TAURUS R/B
1 25160U 98007D   26087.50910069  .00000028  00000+0  69542-4 0  9990
2 25160 108.0042 169.4480 0063762 270.7098 100.1068 14.22458828459042
