[{"OBJECT_NAME":"CELESTIS-02 & TAURUS R/B","OBJECT_ID":"1998-007D","EPOCH":"2026-03-28T12:13:06.299616","MEAN_MOTION":14.22458828,"ECCENTRICITY":0.00637624,"INCLINATION":108.0042,"RA_OF_ASC_NODE":169.448,"ARG_OF_PERICENTER":270.7098,"MEAN_ANOMALY":100.1068,"EPHEMERIS_TYPE":0,"CLASSIFICATION_TYPE":"U","NORAD_CAT_ID":25160,"ELEMENT_SET_NO":999,"REV_AT_EPOCH":45904,"BSTAR":6.9542285e-5,"MEAN_MOTION_DOT":2.8e-7,"MEAN_MOTION_DDOT":0}]
